[{"OBJECT_NAME":"SENTINEL-2C","OBJECT_ID":"2024-157A","EPOCH":"2026-03-09T19:14:47.154624","MEAN_MOTION":14.30814287,"ECCENTRICITY":7.601e-5,"INCLINATION":98.5688,"RA_OF_ASC_NODE":145.0121,"ARG_OF_PERICENTER":103.4918,"MEAN_ANOMALY":256.635,"EPHEMERIS_TYPE":0,"CLASSIFICATION_TYPE":"U","NORAD_CAT_ID":60989,"ELEMENT_SET_NO":999,"REV_AT_EPOCH":7877,"BSTAR":7.7072514e-5,"MEAN_MOTION_DOT":1.58e-6,"MEAN_MOTION_DDOT":0},{"OBJECT_NAME":"CZ-6A DEB","OBJECT_ID":"2024-140VL","EPOCH":"2026-03-09T16:44:54.066336","MEAN_MOTION":14.44817216,"ECCENTRICITY":0.00730394,"INCLINATION":89.6661,"RA_OF_ASC_NODE":329.9571,"ARG_OF_PERICENTER":180.8656,"MEAN_ANOMALY":179.2434,"EPHEMERIS_TYPE":0,"CLASSIFICATION_TYPE":"U","NORAD_CAT_ID":61347,"ELEMENT_SET_NO":999,"REV_AT_EPOCH":7949,"BSTAR":0.0018291781,"MEAN_MOTION_DOT":6.582e-5,"MEAN_MOTION_DDOT":0}]
